H1 CPF 01  gfz 2021 08 27 00  7391 terrasarx 
H2 0702601  6201 31698    2021 08 27 00 59 42 2021 09 01 00 00 42   120 1 1  0 0 0
H9
10 0 59453  53262.000000  0   -2431052.493  -3769933.927   5218149.250
10 0 59453  53382.000000  0   -2965757.575  -4182357.447   4591283.391
10 0 59453  53502.000000  0   -3455136.269  -4512733.875   3883615.141
10 0 59453  53622.000000  0   -3889139.276  -4756146.093   3107576.826
10 0 59453  53742.000000  0   -4258615.741  -4909369.974   2276817.798
10 0 59453  53862.000000  0   -4555508.733  -4970919.301   1405962.701
10 0 59453  53982.000000  0   -4773031.881  -4941055.002    510348.796
10 0 59453  54102.000000  0   -4905822.196  -4821758.807   -394251.248
10 0 59453  54222.000000  0   -4950065.503  -4616672.001  -1291915.998
10 0 59453  54342.000000  0   -4903590.184  -4331000.079  -2166865.371
10 0 59453  54462.000000  0   -4765926.455  -3971385.355  -3003746.176
10 0 59453  54582.000000  0   -4538330.742  -3545752.455  -3787905.803
10 0 59453  54702.000000  0   -4223775.867  -3063131.814  -4505649.626
10 0 59453  54822.000000  0   -3826907.513  -2533464.925  -5144477.788
10 0 59453  54942.000000  0   -3353968.350  -1967396.486  -5693296.616
10 0 59453  55062.000000  0   -2812692.893  -1376058.708  -6142602.181
10 0 59453  55182.000000  0   -2212175.381   -770851.909  -6484634.431
10 0 59453  55302.000000  0   -1562712.637   -163226.154  -6713499.673
10 0 59453  55422.000000  0    -875626.732    435531.448  -6825260.117
10 0 59453  55542.000000  0    -163071.055   1014500.731  -6817994.044
10 0 59453  55662.000000  0     562179.623   1563322.565  -6691824.958
10 0 59453  55782.000000  0    1286951.657   2072379.042  -6448921.602
10 0 59453  55902.000000  0    1997907.446   2532959.732  -6093465.350
10 0 59453  56022.000000  0    2681786.398   2937409.931  -5631585.807
10 0 59453  56142.000000  0    3325649.171   3279258.226  -5071264.207
10 0 59453  56262.000000  0    3917121.489   3553322.872  -4422207.861
10 0 59453  56382.000000  0    4444634.949   3755794.798  -3695692.978
10 0 59453  56502.000000  0    4897658.756   3884294.128  -2904377.245
10 0 59453  56622.000000  0    5266915.696   3937898.720  -2062084.483
10 0 59453  56742.000000  0    5544578.630   3917144.541  -1183565.421
10 0 59453  56862.000000  0    5724441.934   3823995.877   -284237.428
10 0 59453  56982.000000  0    5802063.107   3661786.686    620090.372
10 0 59453  57102.000000  0    5774871.122   3435133.484   1513502.336
10 0 59453  57222.000000  0    5642236.733   3149821.384   2380265.217
10 0 59453  57342.000000  0    5405503.643   2812667.489   3205113.866
10 0 59453  57462.000000  0    5067979.355   2431363.985   3973528.354
10 0 59453  57582.000000  0    4634884.772   2014304.689   4671994.617
10 0 59453  57702.000000  0    4113267.867   1570401.261   5288242.121
10 0 59453  57822.000000  0    3511882.467   1108893.336   5811460.845
10 0 59453  57942.000000  0    2841030.998    639155.194   6232486.995
10 0 59453  58062.000000  0    2112381.210    170505.726   6543955.561
10 0 59453  58182.000000  0    1338760.169   -287974.632   6740423.332
10 0 59453  58302.000000  0     533925.860   -727619.070   6818460.318
10 0 59453  58422.000000  0    -287679.389  -1140337.762   6776705.239
10 0 59453  58542.000000  0   -1111187.801  -1518766.148   6615887.117
10 0 59453  58662.000000  0   -1921574.201  -1856396.474   6338812.096
10 0 59453  58782.000000  0   -2703927.797  -2147688.964   5950317.041
10 0 59453  58902.000000  0   -3443726.296  -2388163.478   5457193.356
10 0 59453  59022.000000  0   -4127110.667  -2574470.843   4868075.107
10 0 59453  59142.000000  0   -4741149.978  -2704440.119   4193292.099
10 0 59453  59262.000000  0   -5274092.335  -2777100.731   3444692.230
10 0 59453  59382.000000  0   -5715596.889  -2792679.445   2635436.172
10 0 59453  59502.000000  0   -6056943.066  -2752573.087   1779766.461
10 0 59453  59622.000000  0   -6291211.173  -2659297.404    892752.658
10 0 59453  59742.000000  0   -6413427.126  -2516410.426     -9981.602
10 0 59453  59862.000000  0   -6420669.616  -2328414.315   -912541.587
10 0 59453  59982.000000  0   -6312135.752  -2100637.437  -1799051.596
10 0 59453  60102.000000  0   -6089162.087  -1839100.214  -2653942.590
10 0 59453  60222.000000  0   -5755203.332  -1550368.465  -3462231.197
10 0 59453  60342.000000  0   -5315769.437  -1241398.083  -4209785.073
10 0 59453  60462.000000  0   -4778323.350   -919375.113  -4883569.184
10 0 59453  60582.000000  0   -4152142.386   -591554.660  -5471869.035
10 0 59453  60702.000000  0   -3448146.423   -265103.008  -5964486.334
10 0 59453  60822.000000  0   -2678698.780     53053.825  -6352904.703
10 0 59453  60942.000000  0   -1857384.472    356371.576  -6630424.940
10 0 59453  61062.000000  0    -998768.994    638816.479  -6792269.477
10 0 59453  61182.000000  0    -118143.019    894980.803  -6835655.247
10 0 59453  61302.000000  0     768743.342   1120183.023  -6759835.249
10 0 59453  61422.000000  0    1645954.611   1310550.307  -6566112.365
10 0 59453  61542.000000  0    2497650.995   1463084.580  -6257820.287
10 0 59453  61662.000000  0    3308369.659   1575709.471  -5840271.814
10 0 59453  61782.000000  0    4063301.783   1647297.270  -5320675.363
10 0 59453  61902.000000  0    4748562.742   1677676.475  -4708022.531
10 0 59453  62022.000000  0    5351452.283   1667619.601  -4012943.711
10 0 59453  62142.000000  0    5860696.883   1618810.452  -3247532.845
10 0 59453  62262.000000  0    6266670.114   1533791.520  -2425144.989
10 0 59453  62382.000000  0    6561587.108   1415892.829  -1560167.610
10 0 59453  62502.000000  0    6739665.700   1269142.995   -667768.244
10 0 59453  62622.000000  0    6797249.761   1098163.854    236375.652
10 0 59453  62742.000000  0    6732889.668    908052.468   1136358.637
10 0 59453  62862.000000  0    6547381.349    704252.881   2016334.224
10 0 59453  62982.000000  0    6243759.310    492419.695   2860804.182
10 0 59453  63102.000000  0    5827243.134    278278.349   3654899.195
10 0 59453  63222.000000  0    5305140.679     67485.140   4384647.195
10 0 59453  63342.000000  0    4686710.761   -134507.718   5037221.204
10 0 59453  63462.000000  0    3982989.416   -322581.681   5601166.383
10 0 59453  63582.000000  0    3206581.793   -492071.181   6066597.665
10 0 59453  63702.000000  0    2371428.546   -638869.335   6425367.729
10 0 59453  63822.000000  0    1492550.276   -759519.869   6671203.813
10 0 59453  63942.000000  0     585773.467   -851292.974   6799812.731
10 0 59453  64062.000000  0    -332556.954   -912243.458   6808950.350
10 0 59453  64182.000000  0   -1245871.709   -941250.601   6698457.158
10 0 59453  64302.000000  0   -2137674.722   -938038.795   6470260.324
10 0 59453  64422.000000  0   -2991839.197   -903178.353   6128341.978
10 0 59453  64542.000000  0   -3792899.286   -838066.773   5678675.807
10 0 59453  64662.000000  0   -4526334.127   -744891.522   5129129.688
10 0 59453  64782.000000  0   -5178837.760   -626574.466   4489333.972
10 0 59453  64902.000000  0   -5738568.564   -486698.535   3770516.862
10 0 59453  65022.000000  0   -6195372.765   -329418.275   2985309.825
10 0 59453  65142.000000  0   -6540978.445   -159356.076   2147527.302
10 0 59453  65262.000000  0   -6769156.171     18514.090   1271921.300
10 0 59453  65382.000000  0   -6875839.344    198991.519    373915.479
10 0 59453  65502.000000  0   -6859201.367    376779.671   -530674.792
10 0 59453  65622.000000  0   -6719687.110    546620.155  -1425930.395
10 0 59453  65742.000000  0   -6459997.847    703425.537  -2296116.604
10 0 59453  65862.000000  0   -6085033.696    842407.948  -3125965.908
10 0 59453  65982.000000  0   -5601791.137    959200.765  -3900952.773
10 0 59453  66102.000000  0   -5019218.518   1049969.521  -4607548.466
10 0 59453  66222.000000  0   -4348037.330   1111509.665  -5233453.864
10 0 59453  66342.000000  0   -3600533.051   1141329.065  -5767806.176
10 0 59453  66462.000000  0   -2790321.548   1137713.497  -6201357.583
10 0 59453  66582.000000  0   -1932095.984   1099773.853  -6526623.761
10 0 59453  66702.000000  0   -1041358.652   1027476.221  -6738001.964
10 0 59453  66822.000000  0    -134143.175    921652.587  -6831856.188
10 0 59453  66942.000000  0     773267.050    783993.014  -6806572.141
10 0 59453  67062.000000  0    1664623.491    617019.188  -6662584.457
10 0 59453  67182.000000  0    2523998.098    424039.329  -6402370.328
10 0 59453  67302.000000  0    3336062.354    209085.782  -6030411.336
10 0 59453  67422.000000  0    4086357.525    -23164.602  -5553123.458
10 0 59453  67542.000000  0    4761550.826   -267486.231  -4978756.921
10 0 59453  67662.000000  0    5349676.940   -518214.524  -4317266.009
10 0 59453  67782.000000  0    5840357.969   -769368.702  -3580146.425
10 0 59453  67902.000000  0    6224996.620  -1014784.906  -2780244.059
10 0 59453  68022.000000  0    6496939.032  -1248257.416  -1931536.819
10 0 59453  68142.000000  0    6651602.644  -1463684.072  -1048891.907
10 0 59453  68262.000000  0    6686564.323  -1655212.474   -147803.270
10 0 59453  68382.000000  0    6601606.916  -1817383.539    755885.338
10 0 59453  68502.000000  0    6398721.413  -1945268.589   1646267.230
10 0 59453  68622.000000  0    6082064.135  -2034596.404   2507661.461
10 0 59453  68742.000000  0    5657870.451  -2081866.560   3324898.318
10 0 59453  68862.000000  0    5134325.951  -2084445.894   4083593.528
10 0 59453  68982.000000  0    4521400.190  -2040646.360   4770404.965
10 0 59453  69102.000000  0    3830649.114  -1949781.682   5373268.349
10 0 59453  69222.000000  0    3074988.416  -1812202.988   5881609.240
10 0 59453  69342.000000  0    2268443.026  -1629311.631   6286524.025
10 0 59453  69462.000000  0    1425881.311  -1403549.903   6580929.923
10 0 59453  69582.000000  0     562736.959  -1138369.751   6759683.227
10 0 59453  69702.000000  0    -305275.784   -838179.312   6819663.426
99
